{"type": "FeatureCollection", "features": [ {"type": "Feature", "properties": {"norad_id": 38953, "name": "BEIDOU-2 G6 (C02)", "group": "beidou", "lat": -3.8905587140290256, "lon": -24.081616322349767, "alt_km": 35759.60212154083, "timestamp": "2025-12-09T11:33:55.064761+00:00", "meta": {"OBJECT_NAME": "BEIDOU-2 G6 (C02)", "OBJECT_ID": "2012-059A", "EPOCH": "2025-12-08T20:51:04.199040", "MEAN_MOTION": 1.00269836, "ECCENTRICITY": 0.00074931, "INCLINATION": 3.9388, "RA_OF_ASC_NODE": 75.5346, "ARG_OF_PERICENTER": 289.1403, "MEAN_ANOMALY": 109.993, "EPHEMERIS_TYPE": 0, "CLASSIFICATION_TYPE": "U", "NORAD_CAT_ID": 38953, "ELEMENT_SET_NO": 999, "REV_AT_EPOCH": 4800, "BSTAR": 0, "MEAN_MOTION_DOT": -1.74e-06, "MEAN_MOTION_DDOT": 0}, "tle": {"line1": "1 38953U 12059A   25342.86879860 -.00000174  00000+0  00000+0 0  9994", "line2": "2 38953   3.9388  75.5346 0007493 289.1403 109.9930  1.00269836 48009"}}, "geometry": {"type": "Point", "coordinates": [-24.081616322349767, -3.8905587140290256]}}, {"type": "Feature", "properties": {"norad_id": 40549, "name": "BEIDOU-3S IGSO-1S (C31)", "group": "beidou", "lat": 34.34214425129805, "lon": -26.69931796982614, "alt_km": 35904.4715247958, "timestamp": "2025-12-09T11:33:55.064773+00:00", "meta": {"OBJECT_NAME": "BEIDOU-3S IGSO-1S (C31)", "OBJECT_ID": "2015-019A", "EPOCH": "2025-12-07T20:38:38.671584", "MEAN_MOTION": 1.00293516, "ECCENTRICITY": 0.00368211, "INCLINATION": 49.562, "RA_OF_ASC_NODE": 297.7693, "ARG_OF_PERICENTER": 193.8977, "MEAN_ANOMALY": 348.5751, "EPHEMERIS_TYPE": 0, "CLASSIFICATION_TYPE": "U", "NORAD_CAT_ID": 40549, "ELEMENT_SET_NO": 999, "REV_AT_EPOCH": 3915, "BSTAR": 0, "MEAN_MOTION_DOT": -1.86e-06, "MEAN_MOTION_DDOT": 0}, "tle": {"line1": "1 40549U 15019A   25341.86016981 -.00000186  00000+0  00000+0 0  9996", "line2": "2 40549  49.5620 297.7693 0036821 193.8977 348.5751  1.00293516 39155"}}, "geometry": {"type": "Point", "coordinates": [-26.69931796982614, 34.34214425129805]}}, {"type": "Feature", "properties": {"norad_id": 40748, "name": "BEIDOU-3S M2S (C58)", "group": "beidou", "lat": 16.109896825979263, "lon": 116.90761608386214, "alt_km": 21537.124905229586, "timestamp": "2025-12-09T11:33:55.064784+00:00", "meta": {"OBJECT_NAME": "BEIDOU-3S M2S (C58)", "OBJECT_ID": "2015-037A", "EPOCH": "2025-12-08T16:56:06.142560", "MEAN_MOTION": 1.86229071, "ECCENTRICITY": 0.00122828, "INCLINATION": 55.0424, "RA_OF_ASC_NODE": 308.6021, "ARG_OF_PERICENTER": 268.3899, "MEAN_ANOMALY": 91.4573, "EPHEMERIS_TYPE": 0, "CLASSIFICATION_TYPE": "U", "NORAD_CAT_ID": 40748, "ELEMENT_SET_NO": 999, "REV_AT_EPOCH": 7057, "BSTAR": 0, "MEAN_MOTION_DOT": -7.3e-07, "MEAN_MOTION_DDOT": 0}, "tle": {"line1": "1 40748U 15037A   25342.70562665 -.00000073  00000+0  00000+0 0  9991", "line2": "2 40748  55.0424 308.6021 0012282 268.3899  91.4573  1.86229071 70579"}}, "geometry": {"type": "Point", "coordinates": [116.90761608386214, 16.109896825979263]}}, {"type": "Feature", "properties": {"norad_id": 40749, "name": "BEIDOU-3S M1S (C57)", "group": "beidou", "lat": 4.766191951910619, "lon": -48.11178857154366, "alt_km": 21515.519659390557, "timestamp": "2025-12-09T11:33:55.064805+00:00", "meta": {"OBJECT_NAME": "BEIDOU-3S M1S (C57)", "OBJECT_ID": "2015-037B", "EPOCH": "2025-12-08T09:35:11.371488", "MEAN_MOTION": 1.86253811, "ECCENTRICITY": 0.00035729, "INCLINATION": 55.0394, "RA_OF_ASC_NODE": 308.6023, "ARG_OF_PERICENTER": 359.9118, "MEAN_ANOMALY": 0.0754, "EPHEMERIS_TYPE": 0, "CLASSIFICATION_TYPE": "U", "NORAD_CAT_ID": 40749, "ELEMENT_SET_NO": 999, "REV_AT_EPOCH": 7057, "BSTAR": 0, "MEAN_MOTION_DOT": -7.3e-07, "MEAN_MOTION_DDOT": 0}, "tle": {"line1": "1 40749U 15037B   25342.39943717 -.00000073  00000+0  00000+0 0  9998", "line2": "2 40749  55.0394 308.6023 0003572 359.9118   0.0754  1.86253811 70577"}}, "geometry": {"type": "Point", "coordinates": [-48.11178857154366, 4.766191951910619]}}, {"type": "Feature", "properties": {"norad_id": 40938, "name": "BEIDOU-3S IGSO-2S (C56)", "group": "beidou", "lat": 49.41238489763675, "lon": -14.737232228915104, "alt_km": 35834.61775803388, "timestamp": "2025-12-09T11:33:55.064831+00:00", "meta": {"OBJECT_NAME": "BEIDOU-3S IGSO-2S (C56)", "OBJECT_ID": "2015-053A", "EPOCH": "2025-12-07T17:59:38.817312", "MEAN_MOTION": 1.00270783, "ECCENTRICITY": 0.0060962, "INCLINATION": 49.5194, "RA_OF_ASC_NODE": 261.0646, "ARG_OF_PERICENTER": 188.6217, "MEAN_ANOMALY": 353.0712, "EPHEMERIS_TYPE": 0, "CLASSIFICATION_TYPE": "U", "NORAD_CAT_ID": 40938, "ELEMENT_SET_NO": 999, "REV_AT_EPOCH": 3743, "BSTAR": 0, "MEAN_MOTION_DOT": -1.42e-06, "MEAN_MOTION_DDOT": 0}, "tle": {"line1": "1 40938U 15053A   25341.74975483 -.00000142  00000+0  00000+0 0  9996", "line2": "2 40938  49.5194 261.0646 0060962 188.6217 353.0712  1.00270783 37435"}}, "geometry": {"type": "Point", "coordinates": [-14.737232228915104, 49.41238489763675]}}, {"type": "Feature", "properties": {"norad_id": 41434, "name": "BEIDOU-2 IGSO-6 (C13)", "group": "beidou", "lat": -44.8952261815325, "lon": 4.80889514172644, "alt_km": 35726.91744926249, "timestamp": "2025-12-09T11:33:55.064848+00:00", "meta": {"OBJECT_NAME": "BEIDOU-2 IGSO-6 (C13)", "OBJECT_ID": "2016-021A", "EPOCH": "2025-12-03T15:53:57.382080", "MEAN_MOTION": 1.00293531, "ECCENTRICITY": 0.00596341, "INCLINATION": 59.9536, "RA_OF_ASC_NODE": 39.991, "ARG_OF_PERICENTER": 228.541, "MEAN_ANOMALY": 135.1173, "EPHEMERIS_TYPE": 0, "CLASSIFICATION_TYPE": "U", "NORAD_CAT_ID": 41434, "ELEMENT_SET_NO": 999, "REV_AT_EPOCH": 3552, "BSTAR": 0, "MEAN_MOTION_DOT": -1.61e-06, "MEAN_MOTION_DDOT": 0}, "tle": {"line1": "1 41434U 16021A   25337.66246970 -.00000161  00000+0  00000+0 0  9993", "line2": "2 41434  59.9536  39.9910 0059634 228.5410 135.1173  1.00293531 35525"}}, "geometry": {"type": "Point", "coordinates": [4.80889514172644, -44.8952261815325]}}, {"type": "Feature", "properties": {"norad_id": 41586, "name": "BEIDOU-2 G7 (C03)", "group": "beidou", "lat": -1.5832149503489437, "lon": 2.376752531802361, "alt_km": 35780.0964680148, "timestamp": "2025-12-09T11:33:55.064861+00:00", "meta": {"OBJECT_NAME": "BEIDOU-2 G7 (C03)", "OBJECT_ID": "2016-037A", "EPOCH": "2025-12-09T02:58:38.764992", "MEAN_MOTION": 1.00268678, "ECCENTRICITY": 0.0004345, "INCLINATION": 1.748, "RA_OF_ASC_NODE": 67.6955, "ARG_OF_PERICENTER": 1.8302, "MEAN_ANOMALY": 163.7219, "EPHEMERIS_TYPE": 0, "CLASSIFICATION_TYPE": "U", "NORAD_CAT_ID": 41586, "ELEMENT_SET_NO": 999, "REV_AT_EPOCH": 498, "BSTAR": 0, "MEAN_MOTION_DOT": -3.51e-06, "MEAN_MOTION_DDOT": 0}, "tle": {"line1": "1 41586U 16037A   25343.12405978 -.00000351  00000+0  00000+0 0  9992", "line2": "2 41586   1.7480  67.6955 0004345   1.8302 163.7219  1.00268678  4982"}}, "geometry": {"type": "Point", "coordinates": [2.376752531802361, -1.5832149503489437]}}, {"type": "Feature", "properties": {"norad_id": 43001, "name": "BEIDOU-3 M1 (C19)", "group": "beidou", "lat": -52.14438213302974, "lon": 11.123700548156082, "alt_km": 21509.52410122596, "timestamp": "2025-12-09T11:33:55.064873+00:00", "meta": {"OBJECT_NAME": "BEIDOU-3 M1 (C19)", "OBJECT_ID": "2017-069A", "EPOCH": "2025-12-07T23:26:52.374048", "MEAN_MOTION": 1.86230858, "ECCENTRICITY": 0.0009017, "INCLINATION": 56.5233, "RA_OF_ASC_NODE": 69.3913, "ARG_OF_PERICENTER": 303.8137, "MEAN_ANOMALY": 56.1206, "EPHEMERIS_TYPE": 0, "CLASSIFICATION_TYPE": "U", "NORAD_CAT_ID": 43001, "ELEMENT_SET_NO": 999, "REV_AT_EPOCH": 5504, "BSTAR": 0, "MEAN_MOTION_DOT": -4.4e-07, "MEAN_MOTION_DDOT": 0}, "tle": {"line1": "1 43001U 17069A   25341.97699507 -.00000044  00000+0  00000+0 0  9995", "line2": "2 43001  56.5233  69.3913 0009017 303.8137  56.1206  1.86230858 55042"}}, "geometry": {"type": "Point", "coordinates": [11.123700548156082, -52.14438213302974]}}, {"type": "Feature", "properties": {"norad_id": 43002, "name": "BEIDOU-3 M2 (C20)", "group": "beidou", "lat": -24.463449299394277, "lon": 51.89217594927789, "alt_km": 21514.050166135516, "timestamp": "2025-12-09T11:33:55.064890+00:00", "meta": {"OBJECT_NAME": "BEIDOU-3 M2 (C20)", "OBJECT_ID": "2017-069B", "EPOCH": "2025-12-08T23:44:32.826912", "MEAN_MOTION": 1.86230548, "ECCENTRICITY": 0.0006216, "INCLINATION": 56.5232, "RA_OF_ASC_NODE": 69.3945, "ARG_OF_PERICENTER": 332.7308, "MEAN_ANOMALY": 27.2585, "EPHEMERIS_TYPE": 0, "CLASSIFICATION_TYPE": "U", "NORAD_CAT_ID": 43002, "ELEMENT_SET_NO": 999, "REV_AT_EPOCH": 5505, "BSTAR": 0, "MEAN_MOTION_DOT": -4.6e-07, "MEAN_MOTION_DDOT": 0}, "tle": {"line1": "1 43002U 17069B   25342.98926883 -.00000046  00000+0  00000+0 0  9990", "line2": "2 43002  56.5232  69.3945 0006216 332.7308  27.2585  1.86230548 55052"}}, "geometry": {"type": "Point", "coordinates": [51.89217594927789, -24.463449299394277]}}, {"type": "Feature", "properties": {"norad_id": 43107, "name": "BEIDOU-3 M7 (C27)", "group": "beidou", "lat": 29.607891999795452, "lon": 104.99806766274475, "alt_km": 21522.004415516138, "timestamp": "2025-12-09T11:33:55.064903+00:00", "meta": {"OBJECT_NAME": "BEIDOU-3 M7 (C27)", "OBJECT_ID": "2018-003A", "EPOCH": "2025-12-08T17:34:34.070592", "MEAN_MOTION": 1.86232165, "ECCENTRICITY": 0.0002554, "INCLINATION": 54.5005, "RA_OF_ASC_NODE": 308.9546, "ARG_OF_PERICENTER": 71.3868, "MEAN_ANOMALY": 288.6293, "EPHEMERIS_TYPE": 0, "CLASSIFICATION_TYPE": "U", "NORAD_CAT_ID": 43107, "ELEMENT_SET_NO": 999, "REV_AT_EPOCH": 5380, "BSTAR": 0, "MEAN_MOTION_DOT": -7.5e-07, "MEAN_MOTION_DDOT": 0}, "tle": {"line1": "1 43107U 18003A   25342.73233878 -.00000075  00000+0  00000+0 0  9995", "line2": "2 43107  54.5005 308.9546 0002554  71.3868 288.6293  1.86232165 53808"}}, "geometry": {"type": "Point", "coordinates": [104.99806766274475, 29.607891999795452]}}]}